{"type": "FeatureCollection", "note": "The dry land within the working frame: Natural Earth 10m land rasterized through the plate chart \u2014 the same derivation as med_clip.geojson, so land and sea share one coastline by construction.", "features": [{"type": "Feature", "properties": {"component_px": 18554126}, "geometry": {"type": "Polygon", "coordinates": [[[36.880772, 34.009973], [35.626999, 34.033488], [35.627465, 34.019784], [35.640604, 34.008451], [35.641162, 33.999311], [35.636629, 33.995483], [35.619543, 33.995151], [35.611285, 33.990741], [35.59431, 33.959103], [35.585974, 33.950782], [35.591912, 33.95067], [35.593278, 33.944775], [35.578609, 33.917008], [35.571784, 33.909962], [35.55833, 33.905649], [35.533846, 33.90676], [35.524104, 33.902378], [35.517423, 33.902503], [35.508634, 33.908538], [35.49608, 33.912034], [35.485701, 33.912881], [35.47523, 33.909164], [35.470618, 33.901425], [35.480642, 33.882976], [35.483414, 33.873142], [35.480891, 33.821669], [35.477554, 33.803471], [35.438078, 33.723996], [35.438571, 33.711595], [35.4213, 33.702137], [35.41008, 33.661261], [35.394254, 33.649819], [35.400791, 33.642523], [35.362682, 33.557153], [35.360165, 33.542853], [35.34995, 33.515001], [35.321216, 33.489454], [35.270823, 33.457791], [35.275001, 33.444018], [35.268057, 33.431105], [35.249768, 33.40797], [35.246576, 33.396943], [35.245971, 33.366955], [35.243507, 33.355263], [35.225579, 33.313208], [35.210339, 33.29393], [35.188522, 33.279991], [35.208807, 33.254829], [35.204478, 33.224259], [35.175192, 33.171331], [35.168642, 33.177975], [35.161935, 33.176797], [35.167742, 33.170166], [35.148593, 33.141178], [35.125397, 33.132483], [35.111785, 33.120347], [35.099527, 33.101665], [35.100151, 33.095784], [35.106806, 33.094354], [35.105216, 33.089167], [35.09998, 33.087309], [35.106529, 33.080664], [35.092162, 33.067891], [35.096235, 33.048902], [35.092155, 33.030718], [35.078163, 32.999677], [35.071704, 32.93719], [35.065476, 32.92296], [35.077991, 32.917508], [35.079225, 32.905094], [35.067302, 32.866188], [35.06269, 32.858448], [35.026388, 32.825869], [35.017454, 32.824732], [35.005617, 32.826911], [34.982842, 32.839077], [34.971746, 32.841241], [34.954502, 32.833087], [34.947453, 32.814959], [34.941888, 32.723109], [34.919499, 32.643965], [34.920655, 32.62764], [34.91513, 32.611439], [34.909834, 32.5698], [34.903672, 32.558829], [34.836328, 32.275751], [34.757876, 32.06788], [34.743614, 32.060321], [34.743193, 32.03946], [34.712481, 31.952647], [34.69031, 31.921107], [34.60994, 31.765444], [34.601604, 31.757123], [34.514337, 31.627676], [34.489275, 31.600103], [34.477667, 31.576843], [34.44415, 31.535081], [34.367783, 31.467385], [34.349376, 31.438383], [34.301223, 31.40733], [34.282047, 31.377038], [34.23982, 31.345222], [34.22161, 31.325999], [34.048879, 31.230111], [33.855199, 31.16331], [33.648565, 31.116969], [33.614379, 31.115654], [33.592214, 31.121287], [33.591328, 31.11413], [33.572914, 31.121649], [33.504713, 31.127493], [33.481807, 31.13314], [33.462216, 30.161792], [36.801899, 30.099155]]]}}]}