{"type": "FeatureCollection", "note": "The Mediterranean within the working frame: Natural Earth 10m land, complemented and clipped through the plate chart. Same witness family as ne_10m_lakes, so coast, lakes, and rivers agree by construction.", "features": [{"type": "Feature", "properties": {"name": "the Great Sea", "source": "ne_10m_land complement"}, "geometry": {"type": "Polygon", "coordinates": [[[35.626257, 34.033502], [33.54109, 34.072611], [33.48182, 31.133792], [33.504726, 31.128145], [33.572927, 31.122301], [33.591341, 31.114782], [33.592228, 31.121939], [33.614392, 31.116306], [33.648578, 31.117621], [33.855212, 31.163962], [34.048892, 31.230763], [34.221623, 31.326651], [34.234545, 31.341408], [34.281305, 31.377052], [34.300481, 31.407344], [34.348633, 31.438397], [34.36704, 31.467399], [34.443408, 31.535095], [34.476925, 31.576857], [34.488533, 31.600117], [34.513595, 31.627689], [34.600861, 31.757137], [34.611504, 31.769328], [34.689567, 31.921121], [34.711739, 31.952661], [34.742451, 32.039474], [34.742872, 32.060335], [34.756365, 32.066604], [34.837957, 32.282895], [34.901314, 32.552352], [34.909913, 32.573712], [34.914387, 32.611453], [34.919912, 32.627654], [34.918756, 32.643979], [34.941145, 32.723123], [34.946711, 32.814973], [34.95376, 32.833101], [34.971759, 32.841893], [34.982855, 32.839729], [35.00563, 32.827563], [35.017467, 32.825384], [35.026402, 32.826521], [35.061948, 32.858462], [35.06656, 32.866202], [35.078483, 32.905108], [35.077248, 32.917522], [35.064734, 32.922974], [35.070962, 32.937204], [35.07742, 32.99969], [35.091413, 33.030732], [35.095493, 33.048916], [35.09142, 33.067905], [35.105787, 33.080678], [35.099238, 33.087323], [35.104473, 33.089181], [35.106063, 33.094368], [35.101596, 33.0938], [35.099409, 33.095797], [35.098785, 33.101679], [35.111043, 33.120361], [35.12541, 33.133135], [35.14785, 33.141192], [35.167, 33.17018], [35.161193, 33.176811], [35.168656, 33.178627], [35.174449, 33.171345], [35.203736, 33.224272], [35.208065, 33.254843], [35.18778, 33.280005], [35.209596, 33.293944], [35.224837, 33.313222], [35.242765, 33.355276], [35.245229, 33.366969], [35.245833, 33.396957], [35.249026, 33.407984], [35.267315, 33.431119], [35.274259, 33.444031], [35.270081, 33.457805], [35.321229, 33.490106], [35.349208, 33.515015], [35.359423, 33.542867], [35.361939, 33.557167], [35.400048, 33.642537], [35.393512, 33.649833], [35.409337, 33.661275], [35.420558, 33.702151], [35.437829, 33.711609], [35.437336, 33.72401], [35.476811, 33.803485], [35.480149, 33.821683], [35.482672, 33.873156], [35.469889, 33.902091], [35.475998, 33.910454], [35.485714, 33.913533], [35.502748, 33.911257], [35.517437, 33.903155], [35.524117, 33.90303], [35.53386, 33.907412], [35.558343, 33.906301], [35.571797, 33.910614], [35.577867, 33.917021], [35.592536, 33.944789], [35.591899, 33.950018], [35.585231, 33.950796], [35.593568, 33.959117], [35.610543, 33.990755], [35.615076, 33.994583], [35.636642, 33.996135], [35.64042, 33.999325], [35.639861, 34.008465], [35.626723, 34.019798]]]}}]}