{"type": "FeatureCollection", "note": "Attested regions from OpenBible.info Bible-Geocoding-Data (https://github.com/openbibleinfo/Bible-Geocoding-Data, CC BY 4.0): the 50% confidence isoband of each region, with borders facing a tribe, the sea, or a lake spliced onto those rings (budget = the region's max isoband spacing + the tribal map's 6.3 km max error).", "license": "CC BY 4.0", "source": "https://github.com/openbibleinfo/Bible-Geocoding-Data", "features": [{"type": "Feature", "properties": {"region": "philistia", "name": "Philistia", "openbible_id": "ac71e65"}, "geometry": {"type": "Polygon", "coordinates": [[[34.78558, 32.07544], [34.74909, 32.06322], [34.74287, 32.06034], [34.74245, 32.03947], [34.71174, 31.95266], [34.68957, 31.92112], [34.6115, 31.76933], [34.60086, 31.75714], [34.5136, 31.62769], [34.48853, 31.60012], [34.47693, 31.57686], [34.44341, 31.53509], [34.36704, 31.4674], [34.34863, 31.4384], [34.30048, 31.40734], [34.28131, 31.37705], [34.23454, 31.34141], [34.22162, 31.32665], [34.1741, 31.30027], [34.18767, 31.3078], [34.31192, 31.23827], [34.34587, 31.23827], [34.37981, 31.23827], [34.41375, 31.23827], [34.44769, 31.23827], [34.48164, 31.23827], [34.59939, 31.18843], [34.60848, 31.2026], [34.60962, 31.20762], [34.61416, 31.2137], [34.6153, 31.21873], [34.61984, 31.22481], [34.62325, 31.23487], [34.62893, 31.24398], [34.63514, 31.26092], [34.7709, 31.46653], [34.76418, 31.59895], [34.77433, 31.60476], [34.81814, 31.6239], [34.82429, 31.62659], [34.83678, 31.6348], [34.8629, 31.66025], [34.86738, 31.66624], [34.88958, 31.75279], [34.91403, 31.84831], [34.90771, 31.86028], [34.90722, 31.86121], [34.90382, 31.87618], [34.90375, 31.87979], [34.90321, 31.90893], [34.90269, 31.93724], [34.90093, 31.94213], [34.89588, 31.95615], [34.89611, 31.96681], [34.84584, 32.08772], [34.79484, 32.07368]]]}}, {"type": "Feature", "properties": {"region": "phoenicia", "name": "Phoenicia", "openbible_id": "a33d53e"}, "geometry": {"type": "Polygon", "coordinates": [[[34.91991, 32.62765], [35.1072, 32.68245], [35.63763, 33.10251], [35.95021, 34.14907], [35.95021, 34.18761], [35.90451, 34.26468], [35.85881, 34.22614], [35.41528, 33.68294], [35.40934, 33.66128], [35.39351, 33.64983], [35.40005, 33.64254], [35.38047, 33.59869], [35.36194, 33.55717], [35.35942, 33.54287], [35.34921, 33.51501], [35.33624, 33.50347], [35.32123, 33.49011], [35.27008, 33.45781], [35.27029, 33.45712], [35.16119, 33.17681], [34.94582, 32.80025], [34.91373, 32.60589], [34.9068, 32.56599], [34.90991, 32.57371], [34.91439, 32.61145]]]}}, {"type": "Feature", "properties": {"region": "geshur", "name": "Geshur", "openbible_id": "af6c325"}, "geometry": {"type": "Polygon", "coordinates": [[[35.85015, 33.0075], [35.8226, 33.0075], [35.63341, 32.94026], [35.63225, 32.92878], [35.63109, 32.91728], [35.63809, 32.8736], [35.64088, 32.86498], [35.6397, 32.84997], [35.63734, 32.84055], [35.63705, 32.83231], [35.64088, 32.82083], [35.63499, 32.79404], [35.63558, 32.78198], [35.64088, 32.77226], [35.72014, 32.73247], [35.72949, 32.7389], [35.74081, 32.74669], [35.75217, 32.74888], [35.75557, 32.75193], [35.75444, 32.76994], [35.79918, 32.77976], [35.81349, 32.7829], [35.85156, 32.78433], [35.86004, 32.78465], [35.8748, 32.78889], [35.88048, 32.78898], [35.88389, 32.79104], [35.8911, 32.79231], [35.89147, 32.90303]]]}}, {"type": "Feature", "properties": {"region": "ammon", "name": "Ammon", "openbible_id": "a6046fa"}, "geometry": {"type": "Polygon", "coordinates": [[[35.7816, 31.92407], [35.80172, 31.83034], [35.793, 31.82758], [36.13457, 31.74243], [36.27575, 31.77271], [36.59342, 32.01488], [36.55813, 32.1057], [36.27099, 32.18148], [36.26304, 32.16733], [36.25736, 32.16224], [36.24941, 32.15009], [36.246, 32.14904], [36.19945, 32.1523], [36.17674, 32.16895], [36.15176, 32.17556], [36.14381, 32.17543], [36.12564, 32.16713], [36.11429, 32.15593], [36.01743, 32.15275], [36.01096, 32.15628], [36.0107, 32.15635], [35.99052, 32.16196], [35.99002, 32.1625], [35.98043, 32.17292], [35.97287, 32.18114], [35.97236, 32.18169], [35.97019, 32.19123], [35.95597, 32.20331], [35.92921, 32.19502], [35.8872, 32.19434], [35.86903, 32.20907], [35.85654, 32.20887], [35.8398, 32.20327]]]}}, {"type": "Feature", "properties": {"region": "moab", "name": "Moab", "openbible_id": "aa0b1d6"}, "geometry": {"type": "Polygon", "coordinates": [[[35.98141, 31.73808], [35.98138, 31.7391], [35.86503, 31.73667], [35.83059, 31.73667], [35.75493, 31.81229], [35.74633, 31.8076], [35.74179, 31.80753], [35.71794, 31.80013], [35.71227, 31.80004], [35.70205, 31.79587], [35.68274, 31.79256], [35.67347, 31.78914], [35.65657, 31.78784], [35.58793, 31.73382], [35.58771, 31.73653], [35.42128, 31.25158], [35.40509, 31.23597], [35.40067, 31.23038], [35.36977, 31.23539], [35.35858, 31.21036], [35.36359, 31.17563], [35.38831, 31.14178], [35.39302, 31.11264], [35.40067, 31.10086], [35.41598, 31.0938], [35.45649, 31.08773], [35.45925, 31.08732], [35.47633, 31.08644], [35.96835, 30.84911], [36.00278, 30.93787], [36.03722, 31.05621], [36.07166, 31.29289], [36.07166, 31.32247], [36.07166, 31.35206], [36.04811, 31.48786], [36.06535, 31.50333], [36.06649, 31.50635], [36.03924, 31.54596], [36.02222, 31.59175], [36.01882, 31.61272], [36.01882, 31.62374], [36.01428, 31.64369], [36.00633, 31.65858], [35.99044, 31.68135], [35.98477, 31.69228], [35.98477, 31.69728], [35.9825, 31.70125], [35.98144, 31.73706]]]}}, {"type": "Feature", "properties": {"region": "edom", "name": "Edom", "openbible_id": "a2735ff"}, "geometry": {"type": "Polygon", "coordinates": [[[34.90419, 30.81319], [34.89683, 30.80672], [34.87281, 30.7838], [34.84343, 30.75577], [34.94283, 30.53394], [34.94283, 30.47512], [34.94283, 30.41629], [35.14528, 29.9457], [35.61765, 30.00453], [36.02254, 30.47512], [36.09003, 30.88688], [35.95506, 30.94571], [35.68513, 31.00453], [35.51783, 31.11028], [35.51047, 31.10381], [35.49517, 31.09444], [35.48545, 31.0885], [35.47633, 31.08644], [35.45925, 31.08732], [35.42829, 31.09195]]]}}]}