{"type": "FeatureCollection", "note": "Settlements for the plate: atlas gazetteer coordinates and verse attestations, typed as settlements by OpenBible.info Bible-Geocoding-Data (CC BY 4.0), joined by normalized name at vendor time. Thresholds measured and declared in tools/plate_trace/vendor_settlements.py.", "license": "atlas gazetteer (project data) + OpenBible.info typing, CC BY 4.0", "features": [{"type": "Feature", "properties": {"place": "jerusalem", "name": "Jerusalem", "attestations": 769}, "geometry": {"type": "Point", "coordinates": [35.234167, 31.776667]}}, {"type": "Feature", "properties": {"place": "samaria-1", "name": "Samaria", "attestations": 104}, "geometry": {"type": "Point", "coordinates": [35.195, 32.276111]}}, {"type": "Feature", "properties": {"place": "bethel-1", "name": "Bethel", "attestations": 58}, "geometry": {"type": "Point", "coordinates": [35.241389, 31.922778]}}, {"type": "Feature", "properties": {"place": "hebron", "name": "Hebron", "attestations": 57}, "geometry": {"type": "Point", "coordinates": [35.10222, 31.525087]}}, {"type": "Feature", "properties": {"place": "damascus", "name": "Damascus", "attestations": 56}, "geometry": {"type": "Point", "coordinates": [36.30639, 33.511112]}}, {"type": "Feature", "properties": {"place": "tyre", "name": "Tyre", "attestations": 56}, "geometry": {"type": "Point", "coordinates": [35.196111, 33.270833]}}, {"type": "Feature", "properties": {"place": "jericho-1", "name": "Jericho", "attestations": 53}, "geometry": {"type": "Point", "coordinates": [35.444564, 31.871719]}}, {"type": "Feature", "properties": {"place": "bethlehem-1", "name": "Bethlehem", "attestations": 48}, "geometry": {"type": "Point", "coordinates": [35.207639, 31.704306]}}, {"type": "Feature", "properties": {"place": "sodom", "name": "Sodom", "attestations": 48}, "geometry": {"type": "Point", "coordinates": [35.449223, 31.20849]}}, {"type": "Feature", "properties": {"place": "gibeah-1", "name": "Gibeah", "attestations": 43}, "geometry": {"type": "Point", "coordinates": [35.230718, 31.823113]}}, {"type": "Feature", "properties": {"place": "shechem", "name": "Shechem", "attestations": 40}, "geometry": {"type": "Point", "coordinates": [35.281944, 32.213611]}}, {"type": "Feature", "properties": {"place": "heshbon", "name": "Heshbon", "attestations": 37}, "geometry": {"type": "Point", "coordinates": [35.809062, 31.800811]}}, {"type": "Feature", "properties": {"place": "sidon", "name": "Sidon", "attestations": 37}, "geometry": {"type": "Point", "coordinates": [35.371944, 33.560985]}}, {"type": "Feature", "properties": {"place": "gibeon", "name": "Gibeon", "attestations": 36}, "geometry": {"type": "Point", "coordinates": [35.183351, 31.847451]}}, {"type": "Feature", "properties": {"place": "shiloh", "name": "Shiloh", "attestations": 36}, "geometry": {"type": "Point", "coordinates": [35.289536, 32.055703]}}, {"type": "Feature", "properties": {"place": "gath-1", "name": "Gath", "attestations": 35}, "geometry": {"type": "Point", "coordinates": [34.84694, 31.69972]}}, {"type": "Feature", "properties": {"place": "mizpah-3", "name": "Mizpah", "attestations": 31}, "geometry": {"type": "Point", "coordinates": [35.216417, 31.885136]}}, {"type": "Feature", "properties": {"place": "nazareth", "name": "Nazareth", "attestations": 29}, "geometry": {"type": "Point", "coordinates": [35.29769, 32.70214]}}, {"type": "Feature", "properties": {"place": "jezreel-2", "name": "Jezreel", "attestations": 28}, "geometry": {"type": "Point", "coordinates": [35.327953, 32.557853]}}, {"type": "Feature", "properties": {"place": "dan", "name": "Dan", "attestations": 25}, "geometry": {"type": "Point", "coordinates": [35.652, 33.249]}}, {"type": "Feature", "properties": {"place": "kadesh-barnea", "name": "Kadesh-barnea", "attestations": 24}, "geometry": {"type": "Point", "coordinates": [34.422222, 30.648333]}}, {"type": "Feature", "properties": {"place": "beersheba-1", "name": "Beersheba", "attestations": 23}, "geometry": {"type": "Point", "coordinates": [34.840833, 31.244722]}}, {"type": "Feature", "properties": {"place": "gaza", "name": "Gaza", "attestations": 22}, "geometry": {"type": "Point", "coordinates": [34.4644, 31.504]}}, {"type": "Feature", "properties": {"place": "lachish", "name": "Lachish", "attestations": 22}, "geometry": {"type": "Point", "coordinates": [34.849167, 31.565278]}}, {"type": "Feature", "properties": {"place": "ashdod", "name": "Ashdod", "attestations": 21}, "geometry": {"type": "Point", "coordinates": [34.6578, 31.7572]}}, {"type": "Feature", "properties": {"place": "ekron", "name": "Ekron", "attestations": 20}, "geometry": {"type": "Point", "coordinates": [34.851944, 31.7775]}}, {"type": "Feature", "properties": {"place": "ramoth-gilead", "name": "Ramoth-gilead", "attestations": 20}, "geometry": {"type": "Point", "coordinates": [36.014988, 32.499852]}}]}