{"type": "FeatureCollection", "note": "Tribal allotments traced from Wikimedia Commons \"12 Tribes of Israel Map.svg\", georeferenced through the map's own city markers against known tell coordinates (mean 2.3 km, max 6.3 km over 19 cities). Manasseh is split at the real Jordan corridor. Shared borders are spliced to a single polyline.", "license": "CC BY-SA 3.0", "source": "https://commons.wikimedia.org/wiki/File:12_Tribes_of_Israel_Map.svg", "features": [{"type": "Feature", "properties": {"tribe": "judah", "parent": null}, "geometry": {"type": "Polygon", "coordinates": [[[35.52492, 31.8451], [35.52151, 31.84204], [35.51584, 31.84195], [35.51129, 31.83987], [35.47723, 31.83432], [35.45906, 31.83302], [35.45225, 31.83091], [35.34096, 31.78007], [35.28305, 31.76512], [35.27283, 31.76395], [35.26261, 31.75878], [35.2399, 31.75241], [35.22741, 31.75321], [35.21492, 31.75702], [35.16496, 31.78625], [35.1116, 31.80342], [35.08435, 31.80699], [35.05142, 31.80345], [35.04914, 31.7944], [35.04119, 31.77926], [35.03438, 31.77014], [35.02075, 31.76091], [34.99123, 31.75543], [34.91629, 31.75222], [34.91174, 31.74814], [34.90266, 31.73298], [34.89357, 31.7068], [34.88562, 31.69065], [34.8629, 31.66025], [34.83678, 31.6348], [34.82429, 31.62659], [34.77433, 31.60476], [34.75275, 31.5924], [34.73344, 31.57607], [34.71187, 31.5537], [34.68234, 31.51517], [34.66984, 31.49194], [34.66416, 31.47483], [34.65962, 31.44873], [34.65734, 31.3796], [34.64938, 31.31139], [34.64369, 31.28426], [34.62893, 31.24398], [34.62325, 31.23487], [34.61984, 31.22481], [34.6153, 31.21873], [34.61416, 31.2137], [34.60962, 31.20762], [34.60848, 31.2026], [34.59939, 31.18843], [34.59826, 31.18341], [34.58008, 31.15308], [34.57895, 31.14805], [34.52216, 31.05202], [34.51534, 31.0379], [34.50853, 31.02878], [34.50285, 31.01567], [34.48468, 30.98534], [34.48354, 30.98031], [34.45401, 30.92777], [34.45287, 30.92275], [34.44833, 30.91667], [34.44606, 30.90862], [34.44151, 30.90254], [34.43811, 30.89248], [34.43129, 30.88035], [34.40971, 30.82293], [34.40971, 30.81793], [34.40289, 30.79879], [34.39494, 30.76062], [34.39039, 30.7245], [34.38925, 30.69244], [34.39378, 30.65346], [34.39832, 30.62951], [34.40286, 30.61957], [34.40286, 30.61456], [34.41081, 30.60067], [34.42443, 30.58687], [34.44373, 30.57717], [34.46985, 30.57158], [34.52094, 30.5714], [34.55728, 30.57599], [34.56523, 30.57912], [34.57431, 30.58027], [34.60611, 30.59179], [34.70263, 30.63239], [34.73216, 30.64788], [34.74919, 30.65917], [34.77077, 30.67754], [34.80825, 30.7222], [34.89683, 30.80672], [34.9502, 30.85364], [34.99903, 30.89147], [35.00585, 30.89458], [35.02629, 30.90993], [35.07398, 30.93672], [35.10691, 30.95127], [35.11259, 30.95236], [35.11941, 30.95648], [35.12849, 30.95863], [35.1353, 30.96274], [35.14439, 30.96489], [35.20684, 30.98992], [35.24886, 31.01062], [35.27725, 31.0291], [35.29542, 31.04641], [35.29883, 31.05247], [35.32608, 31.07895], [35.33971, 31.08517], [35.36129, 31.09153], [35.39353, 31.11185], [35.39302, 31.11264], [35.38831, 31.14178], [35.3743, 31.16096], [35.36751, 31.17026], [35.36359, 31.17563], [35.36301, 31.17962], [35.35858, 31.21036], [35.36514, 31.22503], [35.36977, 31.23539], [35.41481, 31.32664], [35.40597, 31.34489], [35.40379, 31.37153], [35.40185, 31.39522], [35.39361, 31.43585], [35.39818, 31.45944], [35.40067, 31.47235], [35.39899, 31.48123], [35.39707, 31.49128], [35.39395, 31.50771], [35.39273, 31.51415], [35.39464, 31.52039], [35.39832, 31.5324], [35.40336, 31.54079], [35.40803, 31.54859], [35.41273, 31.56085], [35.41481, 31.56625], [35.41422, 31.57773], [35.40774, 31.60216], [35.40803, 31.61482], [35.41274, 31.62424], [35.41397, 31.62594], [35.42837, 31.64596], [35.43407, 31.65388], [35.43541, 31.65574], [35.43739, 31.65981], [35.43935, 31.66387], [35.45454, 31.69518], [35.46216, 31.70737], [35.47227, 31.72354], [35.47662, 31.73051], [35.4805, 31.73374], [35.48907, 31.7409], [35.50694, 31.75582], [35.5314, 31.76117], [35.53173, 31.83219]]]}}, {"type": "Feature", "properties": {"tribe": "simeon", "parent": "judah"}, "geometry": {"type": "Polygon", "coordinates": [[[34.7868, 31.47279], [34.7709, 31.46653], [34.75954, 31.45934], [34.71071, 31.41951], [34.69822, 31.4123], [34.68686, 31.4021], [34.68118, 31.394], [34.67891, 31.38796], [34.67891, 31.37995], [34.68231, 31.37099], [34.68231, 31.36599], [34.68685, 31.35605], [34.68685, 31.33001], [34.6823, 31.30591], [34.67322, 31.27973], [34.66526, 31.26559], [34.65277, 31.24937], [34.64482, 31.23322], [34.64027, 31.20711], [34.64027, 31.1961], [34.63459, 31.17498], [34.62664, 31.16384], [34.60279, 31.14143], [34.59825, 31.13335], [34.59711, 31.11931], [34.59938, 31.11634], [34.59938, 31.11134], [34.60619, 31.09843], [34.61641, 31.08658], [34.6323, 31.07282], [34.6516, 31.05911], [34.71292, 31.02805], [34.72313, 31.02521], [34.74584, 31.02257], [34.75493, 31.01871], [34.76742, 31.0089], [34.77763, 30.99605], [34.79012, 30.98423], [34.80715, 30.9765], [34.81964, 30.97269], [34.83667, 30.96996], [34.9048, 30.96505], [34.93092, 30.96647], [34.93546, 30.96854], [34.95136, 30.9708], [34.96725, 30.97606], [34.98883, 30.98742], [35.00019, 30.99962], [35.00814, 31.02178], [35.01041, 31.04584], [35.00929, 31.1079], [35.00135, 31.16184], [34.99908, 31.16581], [34.99795, 31.17681], [34.98546, 31.21966], [34.97638, 31.24054], [34.97411, 31.25152], [34.96844, 31.26044], [34.96163, 31.27935], [34.94006, 31.32006], [34.91622, 31.35873], [34.89238, 31.39139], [34.85378, 31.43682], [34.85151, 31.44179], [34.83108, 31.46249], [34.82199, 31.46835], [34.80837, 31.47314]]]}}, {"type": "Feature", "properties": {"tribe": "benjamin", "parent": null}, "geometry": {"type": "Polygon", "coordinates": [[[35.03553, 31.83223], [35.05135, 31.80317], [35.05142, 31.80345], [35.07433, 31.80591], [35.08435, 31.80699], [35.09437, 31.80567], [35.11147, 31.80343], [35.1116, 31.80342], [35.16467, 31.78635], [35.16496, 31.78625], [35.21448, 31.75727], [35.21492, 31.75702], [35.22713, 31.7533], [35.22741, 31.75321], [35.2399, 31.75241], [35.24016, 31.75248], [35.26261, 31.75878], [35.26301, 31.75899], [35.27283, 31.76395], [35.27294, 31.76397], [35.27856, 31.76461], [35.28305, 31.76512], [35.34096, 31.78007], [35.34134, 31.78024], [35.45225, 31.83091], [35.45253, 31.831], [35.45906, 31.83302], [35.45913, 31.83303], [35.47723, 31.83432], [35.47739, 31.83434], [35.51129, 31.83987], [35.51584, 31.84195], [35.52151, 31.84204], [35.52378, 31.84408], [35.52265, 31.86609], [35.52038, 31.87406], [35.50449, 31.89783], [35.50222, 31.8958], [35.47951, 31.89543], [35.40229, 31.86716], [35.36368, 31.86353], [35.33303, 31.87706], [35.26831, 31.89605], [35.26263, 31.89596], [35.25468, 31.89883], [35.21154, 31.89914], [35.11388, 31.86653], [35.1048, 31.86839], [35.1048, 31.86439], [35.10252, 31.86235], [35.07414, 31.85388]]]}}, {"type": "Feature", "properties": {"tribe": "ephraim", "parent": null}, "geometry": {"type": "Polygon", "coordinates": [[[35.40006, 32.13045], [35.37963, 32.14815], [35.36827, 32.15497], [35.34557, 32.16462], [35.31946, 32.19024], [35.31264, 32.19313], [35.29334, 32.19482], [35.27404, 32.19051], [35.26382, 32.18534], [35.25246, 32.17614], [35.24905, 32.17008], [35.25246, 32.15111], [35.24564, 32.13598], [35.23315, 32.12477], [35.21611, 32.11849], [35.19681, 32.11718], [35.17637, 32.11985], [35.16956, 32.12275], [35.16388, 32.12266], [35.14345, 32.13034], [35.13436, 32.1382], [35.12528, 32.14306], [35.1162, 32.14292], [35.10484, 32.13973], [35.09235, 32.13953], [35.08213, 32.14538], [35.07645, 32.14528], [35.02308, 32.1214], [34.97199, 32.12659], [34.95041, 32.12624], [34.92657, 32.12185], [34.91975, 32.11874], [34.90045, 32.10141], [34.89591, 32.09933], [34.87774, 32.09704], [34.89476, 32.05225], [34.90384, 32.03438], [34.90384, 32.02737], [34.89703, 32.00924], [34.89588, 31.95615], [34.90269, 31.93724], [34.90382, 31.87618], [34.90722, 31.86121], [34.91403, 31.84831], [34.92084, 31.84341], [34.92993, 31.84356], [34.93674, 31.84567], [34.94583, 31.85282], [34.95037, 31.86291], [34.95491, 31.86699], [34.96967, 31.87023], [34.9992, 31.8707], [35.03667, 31.8683], [35.06733, 31.8758], [35.08322, 31.87706], [35.1048, 31.86839], [35.11388, 31.86653], [35.11418, 31.86663], [35.21154, 31.89914], [35.25468, 31.89883], [35.25468, 31.89883], [35.26231, 31.89607], [35.26263, 31.89596], [35.26831, 31.89605], [35.33276, 31.87714], [35.33303, 31.87706], [35.36332, 31.8637], [35.36368, 31.86353], [35.40229, 31.86716], [35.40262, 31.86728], [35.39662, 31.87708], [35.39208, 31.89002], [35.38754, 31.89596], [35.38413, 31.90491], [35.38527, 31.92996], [35.42162, 32.01365], [35.41821, 32.0176], [35.4114, 32.03552], [35.41141, 32.04953], [35.41595, 32.06462], [35.41822, 32.08469], [35.41255, 32.10863]]]}}, {"type": "Feature", "properties": {"tribe": "manasseh-west", "parent": null}, "geometry": {"type": "Polygon", "coordinates": [[[34.99283, 32.8344], [34.98286, 32.83973], [34.97176, 32.84189], [34.95376, 32.8331], [34.94671, 32.81497], [34.94606, 32.80423], [34.94114, 32.72312], [34.939, 32.71554], [34.93033, 32.68488], [34.92638, 32.67093], [34.91876, 32.64398], [34.91991, 32.62765], [34.91785, 32.62162], [34.91473, 32.61246], [34.91439, 32.61145], [34.9125, 32.59553], [34.912, 32.59128], [34.90991, 32.57371], [34.90938, 32.57239], [34.90421, 32.55955], [34.90131, 32.55235], [34.89466, 32.52404], [34.89364, 32.5197], [34.88803, 32.49585], [34.88487, 32.48243], [34.88236, 32.47172], [34.87375, 32.43513], [34.86438, 32.39529], [34.85992, 32.37632], [34.85498, 32.35531], [34.85419, 32.35192], [34.85307, 32.34718], [34.85132, 32.33973], [34.8502, 32.33498], [34.84705, 32.32157], [34.84593, 32.31682], [34.84491, 32.31249], [34.83796, 32.2829], [34.81292, 32.21653], [34.8113, 32.21224], [34.80752, 32.20221], [34.80623, 32.1988], [34.79918, 32.18009], [34.79675, 32.17366], [34.79102, 32.15846], [34.78631, 32.14599], [34.78466, 32.14161], [34.77767, 32.12309], [34.77374, 32.11267], [34.7661, 32.0924], [34.76076, 32.07827], [34.76143, 32.08003], [34.79484, 32.07368], [34.88135, 32.09749], [34.89591, 32.09933], [34.89628, 32.0995], [34.90045, 32.10141], [34.91975, 32.11874], [34.92013, 32.11891], [34.92657, 32.12185], [34.93702, 32.12377], [34.95041, 32.12624], [34.9618, 32.12642], [34.97199, 32.12659], [35.00371, 32.12337], [35.02308, 32.1214], [35.02669, 32.12301], [35.07645, 32.14528], [35.07647, 32.14528], [35.08213, 32.14538], [35.09192, 32.13978], [35.09235, 32.13953], [35.10484, 32.13973], [35.1051, 32.13981], [35.10985, 32.14114], [35.1162, 32.14292], [35.12528, 32.14306], [35.13395, 32.13843], [35.13436, 32.1382], [35.14295, 32.13077], [35.14345, 32.13034], [35.16355, 32.12278], [35.16388, 32.12266], [35.16956, 32.12275], [35.17601, 32.12001], [35.17637, 32.11985], [35.19668, 32.11719], [35.19681, 32.11718], [35.21611, 32.11849], [35.21644, 32.11861], [35.23315, 32.12477], [35.23365, 32.12522], [35.245, 32.13541], [35.24564, 32.13598], [35.25226, 32.15067], [35.25246, 32.15111], [35.24905, 32.17008], [35.25218, 32.17565], [35.25246, 32.17614], [35.25887, 32.18134], [35.26382, 32.18534], [35.26999, 32.18846], [35.27404, 32.19051], [35.28119, 32.19211], [35.29334, 32.19482], [35.31256, 32.19314], [35.31264, 32.19313], [35.31909, 32.19039], [35.31946, 32.19024], [35.34507, 32.16511], [35.34557, 32.16462], [35.36791, 32.15513], [35.36827, 32.15497], [35.37963, 32.14815], [35.39113, 32.13819], [35.40006, 32.13045], [35.40034, 32.12998], [35.40628, 32.11958], [35.41255, 32.10863], [35.41407, 32.10223], [35.41822, 32.08469], [35.41734, 32.07692], [35.41595, 32.06462], [35.41151, 32.04986], [35.41141, 32.04953], [35.4114, 32.03552], [35.41154, 32.03515], [35.41821, 32.0176], [35.42112, 32.01423], [35.42162, 32.01365], [35.42052, 32.01112], [35.40895, 31.98449], [35.39959, 31.96294], [35.39665, 31.95617], [35.38546, 31.93039], [35.38527, 31.92996], [35.38413, 31.90491], [35.38427, 31.90455], [35.38754, 31.89596], [35.39208, 31.89002], [35.39662, 31.87708], [35.40169, 31.86879], [35.41833, 31.87303], [35.42901, 31.87694], [35.45343, 31.88588], [35.46077, 31.88857], [35.47951, 31.89543], [35.47953, 31.89543], [35.50222, 31.8958], [35.50272, 31.89624], [35.51812, 31.92909], [35.52153, 31.9672], [35.51813, 31.98016], [35.51018, 31.99505], [35.50678, 32.03805], [35.52383, 32.0984], [35.52383, 32.11141], [35.53405, 32.11859], [35.53859, 32.12567], [35.53519, 32.13663], [35.53519, 32.14664], [35.54314, 32.15277], [35.5386, 32.16071], [35.5386, 32.17072], [35.54314, 32.1758], [35.54428, 32.18183], [35.55109, 32.18594], [35.55109, 32.19596], [35.55564, 32.19803], [35.5545, 32.20903], [35.55905, 32.21511], [35.55224, 32.23302], [35.55224, 32.24704], [35.55451, 32.24908], [35.55451, 32.25809], [35.54884, 32.26701], [35.54884, 32.27702], [35.55565, 32.28514], [35.55225, 32.28909], [35.54657, 32.292], [35.54657, 32.30102], [35.55111, 32.3121], [35.5443, 32.318], [35.54658, 32.34908], [35.54431, 32.35705], [35.54431, 32.37107], [35.54999, 32.37416], [35.54999, 32.37917], [35.54091, 32.38703], [35.5375, 32.39599], [35.5375, 32.405], [35.54545, 32.41114], [35.54318, 32.4141], [35.54318, 32.42612], [35.54773, 32.43821], [35.55114, 32.44227], [35.55681, 32.44436], [35.55795, 32.45339], [35.55341, 32.46033], [35.55341, 32.47034], [35.55682, 32.4794], [35.55682, 32.48541], [35.5659, 32.49056], [35.56136, 32.49049], [35.55001, 32.49632], [35.55001, 32.50433], [35.54433, 32.51024], [35.54434, 32.52026], [35.54661, 32.5263], [35.55001, 32.52836], [35.55002, 32.53837], [35.55229, 32.54742], [35.54888, 32.54436], [35.54888, 32.52834], [35.46939, 32.52506], [35.43647, 32.53955], [35.39786, 32.53993], [35.37969, 32.53363], [35.34336, 32.53405], [35.332, 32.53587], [35.30816, 32.56753], [35.30136, 32.60647], [35.29682, 32.6104], [35.2866, 32.61324], [35.26956, 32.60696], [35.22755, 32.60328], [35.22187, 32.6092], [35.21847, 32.61615], [35.20598, 32.61595], [35.1651, 32.62931], [35.14921, 32.64708], [35.13218, 32.65882], [35.1072, 32.68245], [35.09926, 32.72137], [35.07201, 32.76199], [35.05044, 32.77666], [35.04477, 32.77757], [35.03001, 32.78534], [35.01785, 32.82543], [35.01747, 32.82538], [35.01511, 32.82582], [35.00635, 32.82743], [35.00563, 32.82756], [35.0003, 32.83041]]]}}, {"type": "Feature", "properties": {"tribe": "dan", "parent": null}, "geometry": {"type": "Polygon", "coordinates": [[[34.76029, 32.077], [34.75637, 32.0666], [34.74287, 32.06034], [34.74265, 32.04914], [34.74245, 32.03947], [34.7355, 32.01983], [34.71816, 31.9708], [34.71174, 31.95266], [34.68957, 31.92112], [34.68643, 31.91502], [34.7142, 31.91619], [34.72328, 31.91633], [34.72896, 31.91342], [34.73463, 31.9015], [34.73577, 31.8895], [34.73349, 31.84841], [34.74144, 31.83152], [34.75733, 31.81175], [34.76187, 31.80882], [34.76868, 31.79891], [34.7789, 31.78907], [34.78117, 31.7841], [34.79593, 31.77032], [34.80842, 31.7615], [34.81977, 31.75768], [34.85497, 31.75324], [34.87314, 31.75253], [34.95376, 31.75382], [34.99123, 31.75543], [35.0004, 31.75713], [35.01745, 31.76029], [35.02075, 31.76091], [35.02529, 31.76398], [35.03359, 31.7696], [35.03438, 31.77014], [35.04078, 31.7787], [35.04119, 31.77926], [35.04914, 31.7944], [35.0504, 31.7994], [35.04881, 31.80784], [35.03679, 31.82992], [35.03553, 31.83223], [35.03595, 31.83247], [35.06805, 31.85047], [35.07414, 31.85388], [35.10252, 31.86235], [35.1048, 31.86439], [35.1048, 31.8644], [35.1048, 31.86839], [35.10608, 31.86813], [35.07983, 31.87679], [35.06733, 31.8758], [35.03989, 31.86909], [35.03667, 31.8683], [34.9992, 31.8707], [34.96967, 31.87023], [34.96946, 31.87018], [34.95491, 31.86699], [34.95441, 31.86654], [34.95101, 31.86348], [34.95037, 31.86291], [34.94602, 31.85326], [34.94583, 31.85282], [34.93816, 31.84679], [34.93674, 31.84567], [34.92993, 31.84356], [34.92991, 31.84356], [34.92084, 31.84341], [34.91936, 31.84447], [34.91403, 31.84831], [34.90994, 31.85606], [34.90722, 31.86121], [34.90512, 31.87047], [34.90382, 31.87618], [34.9036, 31.88819], [34.90269, 31.93724], [34.90257, 31.93758], [34.89588, 31.95615], [34.89703, 32.00919], [34.89703, 32.00924], [34.90384, 32.02737], [34.90384, 32.03237], [34.90384, 32.03438], [34.89845, 32.045], [34.87656, 32.09618], [34.79484, 32.07368], [34.7611, 32.07916]]]}}, {"type": "Feature", "properties": {"tribe": "issachar", "parent": null}, "geometry": {"type": "Polygon", "coordinates": [[[35.56478, 32.55963], [35.56024, 32.5926], [35.55116, 32.61649], [35.55344, 32.64556], [35.55571, 32.6486], [35.55458, 32.65359], [35.54777, 32.66249], [35.5455, 32.66846], [35.54095, 32.67239], [35.48078, 32.70046], [35.43309, 32.70571], [35.40697, 32.69427], [35.36496, 32.6956], [35.35133, 32.68937], [35.34565, 32.68928], [35.32862, 32.683], [35.32294, 32.68291], [35.29455, 32.65542], [35.27979, 32.63316], [35.26048, 32.61783], [35.21868, 32.61572], [35.22187, 32.6092], [35.22705, 32.6038], [35.22755, 32.60328], [35.26279, 32.60637], [35.26956, 32.60696], [35.28358, 32.61213], [35.2866, 32.61324], [35.29184, 32.61178], [35.29656, 32.61047], [35.29682, 32.6104], [35.30136, 32.60647], [35.30139, 32.60629], [35.30816, 32.56753], [35.30856, 32.567], [35.33064, 32.53768], [35.332, 32.53587], [35.33421, 32.53552], [35.34336, 32.53405], [35.37969, 32.53363], [35.38, 32.53374], [35.39786, 32.53993], [35.43646, 32.53955], [35.43647, 32.53955], [35.46903, 32.52522], [35.46939, 32.52506], [35.54665, 32.52825], [35.54888, 32.52834], [35.54888, 32.53234], [35.54888, 32.54434]]]}}, {"type": "Feature", "properties": {"tribe": "zebulun", "parent": null}, "geometry": {"type": "Polygon", "coordinates": [[[35.30593, 32.81681], [35.26051, 32.81608], [35.23439, 32.79864], [35.23212, 32.78759], [35.22871, 32.78052], [35.22757, 32.73845], [35.21735, 32.73528], [35.18442, 32.73175], [35.17874, 32.72766], [35.16625, 32.70743], [35.16284, 32.69636], [35.15716, 32.68726], [35.14213, 32.65196], [35.14921, 32.64708], [35.1646, 32.62987], [35.1651, 32.62931], [35.20568, 32.61605], [35.26097, 32.61822], [35.27908, 32.6326], [35.27979, 32.63316], [35.2942, 32.65489], [35.29455, 32.65542], [35.32175, 32.68176], [35.32294, 32.68291], [35.32862, 32.683], [35.32895, 32.68312], [35.34565, 32.68928], [35.34567, 32.68928], [35.34566, 32.74035], [35.33885, 32.75626], [35.33885, 32.76126], [35.33318, 32.77319], [35.33091, 32.78417], [35.3241, 32.79507]]]}}, {"type": "Feature", "properties": {"tribe": "asher", "parent": null}, "geometry": {"type": "Polygon", "coordinates": [[[35.37986, 33.59731], [35.37517, 33.58681], [35.37215, 33.58005], [35.36194, 33.55717], [35.36006, 33.54651], [35.35942, 33.54287], [35.35871, 33.54093], [35.34921, 33.51501], [35.3305, 33.49836], [35.32123, 33.49011], [35.31003, 33.48303], [35.27008, 33.45781], [35.27358, 33.44626], [35.27426, 33.44403], [35.26732, 33.43112], [35.26156, 33.42384], [35.25677, 33.41778], [35.25158, 33.41121], [35.24903, 33.40798], [35.24583, 33.39696], [35.24565, 33.38773], [35.2455, 33.38056], [35.24524, 33.36742], [35.24523, 33.36697], [35.24276, 33.35528], [35.23375, 33.33412], [35.2276, 33.31971], [35.22484, 33.31322], [35.22278, 33.31063], [35.2156, 33.30154], [35.21041, 33.29497], [35.2096, 33.29394], [35.20023, 33.28796], [35.18778, 33.28001], [35.2006, 33.2641], [35.20806, 33.25484], [35.20443, 33.22917], [35.20374, 33.22427], [35.18619, 33.19256], [35.17527, 33.17282], [35.17445, 33.17135], [35.16866, 33.17863], [35.16119, 33.17681], [35.167, 33.17018], [35.14785, 33.14119], [35.14764, 33.14112], [35.12541, 33.13314], [35.11777, 33.12634], [35.11104, 33.12036], [35.09878, 33.10168], [35.09941, 33.0958], [35.1016, 33.0938], [35.10606, 33.09437], [35.10447, 33.08918], [35.09924, 33.08732], [35.10579, 33.08068], [35.09142, 33.06791], [35.09274, 33.06174], [35.09549, 33.04892], [35.09141, 33.03073], [35.07983, 33.00503], [35.07742, 32.99969], [35.0727, 32.95398], [35.07096, 32.9372], [35.06473, 32.92297], [35.07725, 32.91752], [35.07848, 32.90511], [35.0755, 32.89537], [35.07234, 32.88505], [35.06656, 32.8662], [35.06195, 32.85846], [35.05954, 32.8563], [35.04371, 32.84208], [35.02704, 32.8271], [35.0264, 32.82652], [35.0191, 32.82559], [35.03089, 32.78488], [35.04435, 32.77779], [35.04477, 32.77757], [35.05029, 32.77669], [35.05044, 32.77666], [35.07201, 32.76199], [35.07236, 32.76148], [35.09926, 32.72137], [35.0993, 32.72117], [35.1072, 32.68245], [35.10779, 32.68189], [35.12078, 32.66961], [35.13218, 32.65882], [35.14107, 32.65269], [35.14434, 32.65716], [35.15716, 32.68726], [35.16284, 32.69636], [35.16615, 32.70709], [35.16625, 32.70743], [35.17842, 32.72713], [35.17874, 32.72766], [35.18442, 32.73175], [35.18453, 32.73176], [35.19352, 32.73273], [35.21735, 32.73528], [35.22653, 32.73813], [35.22757, 32.73845], [35.22871, 32.78047], [35.22871, 32.78052], [35.2319, 32.78713], [35.23212, 32.78759], [35.23434, 32.7984], [35.23439, 32.79864], [35.26051, 32.81608], [35.26168, 32.8161], [35.23668, 32.8978], [35.23782, 32.90883], [35.2435, 32.92494], [35.2435, 32.92995], [35.24577, 32.93299], [35.24577, 32.93799], [35.24918, 32.94506], [35.24918, 32.95006], [35.29689, 33.06998], [35.30143, 33.07606], [35.30939, 33.09822], [35.31393, 33.1043], [35.33438, 33.15469], [35.36618, 33.20126], [35.37526, 33.21842], [35.3764, 33.22645], [35.38549, 33.25063], [35.38549, 33.25563], [35.39458, 33.27981], [35.39458, 33.28482], [35.40367, 33.30899], [35.40367, 33.314], [35.40821, 33.32408], [35.40821, 33.32809], [35.41616, 33.34824], [35.42298, 33.36037], [35.43207, 33.38554], [35.43661, 33.39162], [35.44115, 33.40471], [35.47523, 33.46233], [35.46501, 33.47518], [35.45479, 33.49304], [35.45139, 33.504], [35.44458, 33.54394], [35.42983, 33.56974], [35.41847, 33.57957], [35.40371, 33.58534], [35.39122, 33.59515]]]}}, {"type": "Feature", "properties": {"tribe": "naphtali", "parent": null}, "geometry": {"type": "Polygon", "coordinates": [[[35.47479, 33.46159], [35.44145, 33.40522], [35.44115, 33.40471], [35.43674, 33.39199], [35.43661, 33.39162], [35.43248, 33.3861], [35.43207, 33.38554], [35.42311, 33.36075], [35.42298, 33.36037], [35.41616, 33.34824], [35.41429, 33.34351], [35.40821, 33.32809], [35.40821, 33.32408], [35.40367, 33.314], [35.40367, 33.30899], [35.39458, 33.28482], [35.39458, 33.27981], [35.38549, 33.25563], [35.38549, 33.25063], [35.3764, 33.22645], [35.37526, 33.21842], [35.37144, 33.2112], [35.36618, 33.20126], [35.33475, 33.15523], [35.33438, 33.15469], [35.3141, 33.10471], [35.31393, 33.1043], [35.3098, 33.09877], [35.30939, 33.09822], [35.30157, 33.07644], [35.30143, 33.07606], [35.29731, 33.07054], [35.29689, 33.06998], [35.24934, 32.95047], [35.24918, 32.95006], [35.24918, 32.94508], [35.24918, 32.94506], [35.24599, 32.93845], [35.24577, 32.93799], [35.24577, 32.93301], [35.24577, 32.93299], [35.24392, 32.9305], [35.2435, 32.92995], [35.2435, 32.92496], [35.2435, 32.92494], [35.23795, 32.9092], [35.23782, 32.90883], [35.23668, 32.8978], [35.23677, 32.8975], [35.24601, 32.86732], [35.24713, 32.86366], [35.2503, 32.8533], [35.25506, 32.83775], [35.25823, 32.82739], [35.2614, 32.81702], [35.30593, 32.81681], [35.3241, 32.79507], [35.32441, 32.79457], [35.33091, 32.78417], [35.33095, 32.78396], [35.33318, 32.77319], [35.33338, 32.77276], [35.33885, 32.76126], [35.33885, 32.75626], [35.33902, 32.75586], [35.34566, 32.74035], [35.34679, 32.6893], [35.35133, 32.68937], [35.36496, 32.6956], [35.40697, 32.69427], [35.40734, 32.69443], [35.43309, 32.70571], [35.44877, 32.70398], [35.48067, 32.70048], [35.48078, 32.70046], [35.54095, 32.67239], [35.54514, 32.66876], [35.5489, 32.67452], [35.54777, 32.69153], [35.577, 32.72016], [35.57064, 32.73517], [35.56964, 32.73753], [35.5664, 32.75695], [35.56029, 32.76194], [35.55522, 32.76608], [35.55277, 32.76755], [35.54933, 32.76961], [35.5489, 32.7705], [35.54416, 32.78034], [35.54039, 32.78818], [35.53785, 32.79346], [35.52981, 32.8036], [35.52107, 32.81465], [35.51724, 32.82083], [35.52, 32.8341], [35.52204, 32.84396], [35.52372, 32.85203], [35.53076, 32.85847], [35.55267, 32.87853], [35.55492, 32.88059], [35.56617, 32.8859], [35.57107, 32.88821], [35.59172, 32.89795], [35.60149, 32.89703], [35.6135, 32.89589], [35.62032, 32.89051], [35.62856, 32.884], [35.6282, 32.88429], [35.62576, 32.88621], [35.62956, 32.9021], [35.63411, 32.94723], [35.63072, 33.0423], [35.63982, 33.12154], [35.64551, 33.22476], [35.65914, 33.24601], [35.65916, 33.3952], [35.60353, 33.39931], [35.59898, 33.40124], [35.58422, 33.40301], [35.54789, 33.41344], [35.52745, 33.42212], [35.50588, 33.43379], [35.49226, 33.44458]]]}}, {"type": "Feature", "properties": {"tribe": "reuben", "parent": null}, "geometry": {"type": "Polygon", "coordinates": [[[35.99047, 31.88661], [35.93711, 31.89777], [35.86216, 31.84951], [35.76904, 31.81998], [35.74633, 31.8076], [35.74179, 31.80753], [35.71794, 31.80013], [35.71227, 31.80004], [35.70205, 31.79587], [35.68274, 31.79256], [35.67139, 31.78837], [35.57033, 31.78475], [35.53155, 31.79314], [35.53248, 31.7614], [35.54553, 31.76426], [35.55139, 31.76553], [35.55904, 31.76553], [35.56008, 31.76506], [35.56586, 31.76238], [35.57896, 31.75633], [35.58272, 31.75459], [35.58642, 31.75288], [35.58819, 31.73051], [35.585, 31.72095], [35.57847, 31.70136], [35.57623, 31.68602], [35.57414, 31.67176], [35.56941, 31.63941], [35.56893, 31.63611], [35.56821, 31.6312], [35.5659, 31.61542], [35.56519, 31.61051], [35.56336, 31.59803], [35.55463, 31.53829], [35.56846, 31.49678], [35.572, 31.46823], [35.57074, 31.46301], [35.57042, 31.46167], [35.5646, 31.46125], [35.58049, 31.45249], [35.59185, 31.44767], [35.60434, 31.44487], [35.61115, 31.44097], [35.68836, 31.43921], [35.7088, 31.44554], [35.79283, 31.44689], [35.82462, 31.43338], [35.8496, 31.42677], [35.86436, 31.418], [35.89729, 31.41853], [35.90864, 31.42372], [35.92568, 31.42399], [36.0222, 31.46459], [36.06535, 31.50333], [36.06649, 31.50635], [36.03924, 31.54596], [36.02222, 31.59175], [36.01882, 31.61272], [36.01882, 31.62374], [36.01428, 31.64369], [36.00633, 31.65858], [35.99044, 31.68135], [35.98477, 31.69228], [35.98477, 31.69728], [35.9825, 31.70125], [35.98137, 31.73928], [35.99955, 31.82969]]]}}, {"type": "Feature", "properties": {"tribe": "gad", "parent": null}, "geometry": {"type": "Polygon", "coordinates": [[[35.96668, 32.20663], [35.92921, 32.19502], [35.8872, 32.19434], [35.86903, 32.20907], [35.85654, 32.20887], [35.77478, 32.18152], [35.73845, 32.18094], [35.70779, 32.18546], [35.67486, 32.18793], [35.62944, 32.20222], [35.6249, 32.20215], [35.58515, 32.15846], [35.58401, 32.14342], [35.55789, 32.11997], [35.5311, 32.11651], [35.52785, 32.11423], [35.52383, 32.11141], [35.52383, 32.0984], [35.50687, 32.03836], [35.50678, 32.03805], [35.51018, 31.99505], [35.51043, 31.99459], [35.51813, 31.98016], [35.5182, 31.97989], [35.52153, 31.9672], [35.51813, 31.92921], [35.51812, 31.92909], [35.51343, 31.91908], [35.50483, 31.89732], [35.52038, 31.87406], [35.52046, 31.87378], [35.52265, 31.86609], [35.52265, 31.86605], [35.52353, 31.84907], [35.53173, 31.83219], [35.53155, 31.79414], [35.57012, 31.78479], [35.57033, 31.78475], [35.65777, 31.78788], [35.67139, 31.78837], [35.67171, 31.78849], [35.68274, 31.79256], [35.68291, 31.79259], [35.70205, 31.79587], [35.7024, 31.79602], [35.71227, 31.80004], [35.71228, 31.80004], [35.71794, 31.80013], [35.73157, 31.80436], [35.74179, 31.80753], [35.74181, 31.80753], [35.74633, 31.8076], [35.74675, 31.80783], [35.76904, 31.81998], [35.76933, 31.82007], [35.86216, 31.84951], [35.86261, 31.8498], [35.9363, 31.89725], [35.91327, 31.91341], [35.89624, 31.92915], [35.88488, 31.94699], [35.88148, 31.96196], [35.88148, 31.97898], [35.88262, 31.98501], [35.8883, 31.99611], [35.89966, 32.00731], [35.92237, 32.01668], [35.93826, 32.01894], [35.98595, 32.01971], [36.02683, 32.02737], [36.03592, 32.03453], [36.04046, 32.04161], [36.04728, 32.07776], [36.04501, 32.09375], [36.03366, 32.11159], [36.03253, 32.1336], [36.02345, 32.14947], [36.01096, 32.15628], [35.99052, 32.16196], [35.97236, 32.18169]]]}}, {"type": "Feature", "properties": {"tribe": "manasseh-east", "parent": null}, "geometry": {"type": "Polygon", "coordinates": [[[36.37669, 32.79194], [36.36988, 32.79784], [36.35739, 32.80365], [36.34376, 32.80543], [36.33581, 32.80831], [36.30629, 32.81184], [36.26996, 32.81326], [36.17912, 32.8108], [36.14392, 32.81324], [35.98495, 32.81869], [35.95089, 32.81314], [35.90887, 32.79545], [35.88389, 32.79104], [35.88048, 32.78898], [35.8748, 32.78889], [35.86004, 32.78465], [35.81349, 32.7829], [35.75444, 32.76994], [35.75557, 32.75193], [35.75217, 32.74888], [35.74081, 32.74669], [35.69312, 32.71388], [35.62952, 32.68483], [35.59432, 32.67926], [35.59092, 32.6752], [35.5841, 32.65606], [35.57729, 32.64895], [35.57615, 32.64492], [35.57615, 32.6259], [35.58069, 32.61896], [35.58068, 32.60695], [35.58636, 32.60203], [35.58635, 32.55097], [35.58067, 32.54187], [35.57954, 32.53484], [35.575, 32.53176], [35.57613, 32.52177], [35.57159, 32.51268], [35.57272, 32.5097], [35.58407, 32.50187], [35.58861, 32.49293], [35.58861, 32.48392], [35.57839, 32.47474], [35.57612, 32.4707], [35.5818, 32.46479], [35.5818, 32.45377], [35.57612, 32.44767], [35.57725, 32.43468], [35.57157, 32.42758], [35.57157, 32.41957], [35.56816, 32.41651], [35.57043, 32.41454], [35.5693, 32.3965], [35.56589, 32.39344], [35.57156, 32.38853], [35.5727, 32.36451], [35.56702, 32.35641], [35.56815, 32.34342], [35.56474, 32.33936], [35.56361, 32.32732], [35.56928, 32.32341], [35.57269, 32.31445], [35.57269, 32.30444], [35.57041, 32.3004], [35.57496, 32.29446], [35.57609, 32.27846], [35.57041, 32.26936], [35.57382, 32.26541], [35.57381, 32.2604], [35.57949, 32.25549], [35.57949, 32.24247], [35.57722, 32.23843], [35.58176, 32.2345], [35.58176, 32.22649], [35.57835, 32.22143], [35.58289, 32.21549], [35.58289, 32.20648], [35.57721, 32.20238], [35.57948, 32.19641], [35.57948, 32.1874], [35.56926, 32.17622], [35.56926, 32.16921], [35.56585, 32.16415], [35.56926, 32.1552], [35.56925, 32.14518], [35.56585, 32.13912], [35.56017, 32.13503], [35.56116, 32.1229], [35.55839, 32.12042], [35.58338, 32.14285], [35.58401, 32.14342], [35.58514, 32.15835], [35.58515, 32.15846], [35.6249, 32.20215], [35.62492, 32.20215], [35.62944, 32.20222], [35.67457, 32.18802], [35.67486, 32.18793], [35.70771, 32.18546], [35.70779, 32.18546], [35.7383, 32.18096], [35.73845, 32.18094], [35.77478, 32.18152], [35.77508, 32.18163], [35.85654, 32.20887], [35.85656, 32.20887], [35.86903, 32.20907], [35.88671, 32.19474], [35.8872, 32.19434], [35.92921, 32.19502], [35.92949, 32.1951], [35.96015, 32.20461], [35.96668, 32.20663], [35.9669, 32.20568], [35.96814, 32.20024], [35.97236, 32.18169], [35.97287, 32.18114], [35.98043, 32.17292], [35.99002, 32.1625], [35.99052, 32.16196], [36.0107, 32.15635], [36.01096, 32.15628], [36.01743, 32.15275], [36.11429, 32.15593], [36.12564, 32.16713], [36.14381, 32.17543], [36.15176, 32.17556], [36.17674, 32.16895], [36.19945, 32.1523], [36.246, 32.14904], [36.24941, 32.15009], [36.25736, 32.16224], [36.26304, 32.16733], [36.27099, 32.18148], [36.2744, 32.19355], [36.27667, 32.21061], [36.27441, 32.27065], [36.27782, 32.29473], [36.28123, 32.3058], [36.29031, 32.32096], [36.30167, 32.33416], [36.34937, 32.37398], [36.36754, 32.39429], [36.37776, 32.41248], [36.38912, 32.4417], [36.40389, 32.494], [36.40616, 32.51106], [36.40844, 32.5151], [36.41412, 32.56225], [36.41413, 32.6003], [36.41073, 32.6423], [36.40506, 32.67625], [36.40166, 32.71725], [36.39712, 32.74721], [36.38463, 32.78105]]]}}]}